CubeBel-2 (EU11S)
1 57175U 23091K   25342.78143943  .00019263  00000+0  79854-3 0  9991
2 57175  97.5339  39.7150 0012240  68.6796 291.5746 15.23863516135259
RS58S MONITOR-3
1 57180U 23091Q   25342.87076312  .00015841  00000+0  66859-3 0  9991
2 57180  97.5367  40.2437 0014039  53.2758 306.9766 15.23278570135272
RS57S MONITOR-4
1 57182U 23091S   25342.86039264  .00015889  00000+0  66923-3 0  9991
2 57182  97.5362  40.1942 0014031  53.6878 306.5652 15.23347937135272
RS-38S
1 57189U 23091Z   25342.84548304  .00022534  00000+0  79604-3 0  9991
2 57189  97.5366  44.1970 0009076  35.9935 324.1914 15.29178709135539
RS49S NANOZOND-1
1 57190U 23091AA  25342.88040074  .00089997  00000+0  14565-2 0  9998
2 57190  97.5287  52.5587 0004647  14.2939 345.8444 15.52494872136103
RS27S UTMN-2
1 57203U 23091AP  25342.87326265  .00018644  00000+0  71349-3 0  9996
2 57203  97.5365  42.9258 0009912  39.3771 320.8186 15.26574455135455
METEOR-M2-4
1 59051U 24039A   25342.90661878  .00000113  00000+0  70495-4 0  9992
2 59051  98.6761 299.8758 0007257   9.4637 350.6676 14.22400463 92210
SONATE-2
1 59112U 24043Q   25342.83149781  .00035313  00000+0  75360-3 0  9996
2 59112  97.5335 118.9375 0008961 175.9734 184.1588 15.44761427 98379
MO-122
1 60209U 24125G   25342.84037937  .00040021  00000+0  81952-3 0  9992
2 60209  97.2524 193.2103 0013824 193.0249 167.0645 15.45886110 80009
GRBBeta
1 60237U 24128C   25342.83068075  .00007715  00000+0  54097-3 0  9995
2 60237  61.9891 163.2305 0056356  95.8090 264.9431 15.04691416 77606
Curium One
1 60242U 24128H   25342.81940441  .00013427  00000+0  83173-3 0  9999
2 60242  61.9782 158.2394 0056029  92.8260 267.9248 15.08772052 77694
ROBUSTA-3A
1 60243U 24128J   25342.82101110  .00010831  00000+0  68594-3 0  9999
2 60243  61.9858 159.7486 0056169  90.2516 270.5014 15.08125967 77674
CatSat
1 60246U 24125J   25342.84192403  .00045889  00000+0  11196-2 0  9992
2 60246  97.2318 190.2692 0033983 158.2951 201.9745 15.40121928 77922
ARTIC WX
1 60543U 24149CD  25342.80959322  .00002221  00000+0  23702-3 0  9995
2 60543  97.7028  53.5056 0002941  48.1287 312.0181 14.89804223 70951
ARCTICSAT 1
1 61762U 24199AD  25342.87304116  .00073448  00000+0  12296-2 0  9990
2 61762  97.3222 213.7167 0005471 225.4444 134.6362 15.51606313108250
MORDOVIA-IOT
1 61765U 24199AG  25342.88480574  .00185323  00000+0  16489-2 0  9991
2 61765  97.3132 216.3284 0003016 185.7699 174.3528 15.67911806105283
HYPERVIEW-1G (RS66S)
1 61772U 24199AP  25342.86328690  .00054456  00000+0  10593-2 0  9999
2 61772  97.3210 212.2505 0007996 255.6138 104.4225 15.47382790105016
AO-123
1 61781U 24199AY  25342.88400079  .00015867  00000+0  51711-3 0  9994
2 61781  97.3247 208.3763 0012893 271.4564  88.5201 15.31823713104753
ZIMSAT 2
1 61783U 24199BA  25342.84880649  .00220238  00000+0  17020-2 0  9991
2 61783  97.3092 215.6227 0003033 216.7372 143.3684 15.71240774108397
SAMSAT-IONOSPHERE
1 61784U 24199BB  25342.85669839  .00039381  00000+0  90224-3 0  9994
2 61784  97.3223 211.0852 0009842 260.8424  99.1710 15.42615874108089
CROCUBE
1 62394U 24247T   25342.45750237  .00031616  00000+0  92147-3 0  9994
2 62394  44.9760 243.5700 0003055 102.4588 257.6639 15.34879459 53919
HADES-R (SO-124)
1 62690U 25009CK  25342.20678305  .00164727  00000+0  22342-2 0  9997
2 62690  97.3879  64.6580 0001278 229.9698 130.1446 15.57085030 50075
HYDRA-T
1 62692U 25009CM  25342.19024029  .00179548  00000+0  22884-2 0  9993
2 62692  97.3879  64.8308 0001399 246.0040 114.1070 15.58703338 50087
JINJUSat 1B
1 63210U 25052A   25342.65601814  .00023856  00000+0  91457-3 0  9995
2 63210  97.4197 234.8372 0005714  55.7833 304.3946 15.26491564 40969
NUSHSAT 1
1 63211U 25052B   25342.65411806  .00027380  00000+0  10170-2 0  9994
2 63211  97.4181 234.9517 0005816  58.4837 301.6970 15.27510691 40974
TEVEL2-4
1 63213U 25052D   25342.65319882  .00025783  00000+0  97726-3 0  9995
2 63213  97.4102 234.5110 0005213  71.0830 289.0974 15.26855671 40960
TEVEL2-5
1 63214U 25052E   25342.65846072  .00025496  00000+0  96859-3 0  9999
2 63214  97.4098 234.5045 0005150  71.1317 289.0480 15.26782086 40964
TEVEL2-6
1 63215U 25052F   25342.66563979  .00025350  00000+0  96447-3 0  9995
2 63215  97.4100 234.5001 0005238  71.2774 288.9033 15.26734257 40965
TEVEL2-1
1 63217U 25052H   25342.64189867  .00024603  00000+0  94533-3 0  9999
2 63217  97.4078 234.2909 0005439  80.3618 279.8235 15.26411094 40959
TEVEL2-3
1 63218U 25052J   25342.64115919  .00024997  00000+0  95974-3 0  9993
2 63218  97.4077 234.2957 0005464  80.5678 279.6178 15.26432802 40952
TEVEL2-2
1 63219U 25052K   25342.64267183  .00024975  00000+0  95949-3 0  9993
2 63219  97.4076 234.2922 0005447  80.9593 279.2262 15.26413112 40958
TEVEL2-9
1 63237U 25052AD  25342.66732306  .00023505  00000+0  94373-3 0  9997
2 63237  97.4138 234.0288 0009204  92.8432 267.3860 15.24925853 40926
TEVEL2-7
1 63238U 25052AE  25342.68083537  .00022811  00000+0  92001-3 0  9990
2 63238  97.4141 234.0171 0009360  92.8183 267.4126 15.24779252 40924
TEVEL2-8
1 63239U 25052AF  25342.68640466  .00022915  00000+0  92488-3 0  9995
2 63239  97.4138 234.0077 0009396  93.2743 266.9570 15.24753662 40926
HYDRA-W
1 63490U 25052BL  25342.67591005  .00082503  00000+0  20068-2 0  9990
2 63490  97.4063 236.4002 0011672  82.0637 278.1933 15.40590092 41095
HADES-ICM (SO-125)
1 63492U 25052BN  25342.66566338  .00072000  00000+0  18641-2 0  9997
2 63492  97.4068 236.1327 0011748  85.4187 274.8400 15.38727497 41078
PARUS-T2
1 64574U 25135AY  25342.86490265  .00008260  00000+0  78185-3 0  9995
2 64574  97.7612  94.7498 0001054 216.1207 143.9942 14.93888994 25495
Dragonfly
1 65729U 98067XH  25342.73110562  .00167478  00000+0  13272-2 0  9999
2 65729  51.6249 156.2650 0006525 251.4950 108.5339 15.70229086 12537
RSP-03
1 65732U 98067XL  25342.78755583  .00139916  00000+0  12545-2 0  9994
2 65732  51.6260 156.6485 0006171 224.9015 135.1483 15.67324417 12545
GHS-01
1 65733U 98067XM  25342.75315873  .00212788  00000+0  15078-2 0  9999
2 65733  51.6282 155.6685 0006910 251.9559 108.0687 15.72738443 12555
BOTAN
1 65942U 98067XP  25342.49651448  .00106961  00000+0  12043-2 0  9997
2 65942  51.6286 160.7119 0003646 203.3745 156.7083 15.61718865  9203
SPIRONE
1 66657U 25274H   25342.78856698  .00004891  00000+0  48240-3 0  9995
2 66657  97.7386 270.0622 0010979 291.0706  68.9339 14.92416199  1816
K-HERO
1 66660U 25274L   25342.78442874  .00005145  00000+0  50044-3 0  9994
2 66660  97.7392 270.0685 0012904 295.9180  64.0709 14.92926161  1818
Delfi-N3xt
1 39428U 13066N   25342.58260228  .00010601  00000-0  99340-3 0  9997
2 39428  97.8340 258.5083 0080910 118.8750 242.0618 14.91722167646175
IO-86
1 40931U 15052B   25151.18580175  .00001241  00000-0  78118-4 0  9996
2 40931   6.0006  24.0987 0012733 338.8432  21.1169 14.78805930523159
CEVROSAT1
1 98526U 25248E   25313.13142326  .00000000  00000-0  19360-3 0    02
2 98526  45.4084 218.4764 0001315 254.8982 242.1062 15.17981583    02
PARUS-T1
1 98707U 25009N   25063.20000000  .00000000  00000-0  00000-0 0    08
2 98707  97.4430 144.9801 0003811 149.1702 136.3402 15.16239457    06
CORIOLIS
1 27640U 03001A   25342.72598809  .00000269  00000+0  14697-3 0  9993
2 27640  98.7141 347.5227 0014727  44.6535 315.5825 14.19870067187197
